{
  "type": "FeatureCollection",
  "features": [
    {
      "type": "Feature",
      "properties": {
        "norad_id": 67067,
        "name": "HULIANWANG DIGUI-127",
        "group": "last-30-days",
        "lat": -13.927807979396249,
        "lon": 149.4562185386143,
        "alt_km": 808.0359378131243,
        "timestamp": "2025-12-25T16:53:13.375531+00:00",
        "meta_object_name": "HULIANWANG DIGUI-127",
        "meta_object_id": "2025-295J",
        "meta_epoch": "2025-12-22T15:39:07.411968",
        "meta_mean_motion": 14.26251195,
        "meta_eccentricity": 0.00108509,
        "meta_inclination": 50.0053,
        "meta_ra_of_asc_node": 330.3407,
        "meta_arg_of_pericenter": 289.3117,
        "meta_mean_anomaly": 70.6623,
        "meta_ephemeris_type": 0,
        "meta_classification_type": "U",
        "meta_norad_cat_id": 67067,
        "meta_element_set_no": 999,
        "meta_rev_at_epoch": 153,
        "meta_bstar": -0.00027534515,
        "meta_mean_motion_dot": -8.25e-06,
        "meta_mean_motion_ddot": 0,
        "tle_line1": "1 67067U 25295J   25356.65216912 -.00000825  00000+0 -27535-3 0  9993",
        "tle_line2": "2 67067  50.0053 330.3407 0010850 289.3117  70.6623 14.26251195  1535"
      },
      "geometry": {
        "type": "Point",
        "coordinates": [
          149.4562185386143,
          -13.927807979396249
        ]
      }
    },
    {
      "type": "Feature",
      "properties": {
        "norad_id": 67068,
        "name": "CZ-12 R/B",
        "group": "last-30-days",
        "lat": -24.010346825877672,
        "lon": 158.03637486731438,
        "alt_km": 722.5084375748274,
        "timestamp": "2025-12-25T16:53:13.375541+00:00",
        "meta_object_name": "CZ-12 R/B",
        "meta_object_id": "2025-295K",
        "meta_epoch": "2025-12-25T05:55:24.817728",
        "meta_mean_motion": 14.41130003,
        "meta_eccentricity": 0.00568888,
        "meta_inclination": 49.9942,
        "meta_ra_of_asc_node": 318.0473,
        "meta_arg_of_pericenter": 180.7445,
        "meta_mean_anomaly": 179.3399,
        "meta_ephemeris_type": 0,
        "meta_classification_type": "U",
        "meta_norad_cat_id": 67068,
        "meta_element_set_no": 999,
        "meta_rev_at_epoch": 191,
        "meta_bstar": 3.1830062e-05,
        "meta_mean_motion_dot": -6.3e-07,
        "meta_mean_motion_ddot": 0,
        "tle_line1": "1 67068U 25295K   25359.24681502 -.00000063  00000+0  31830-4 0  9990",
        "tle_line2": "2 67068  49.9942 318.0473 0056888 180.7445 179.3399 14.41130003  1915"
      },
      "geometry": {
        "type": "Point",
        "coordinates": [
          158.03637486731438,
          -24.010346825877672
        ]
      }
    },
    {
      "type": "Feature",
      "properties": {
        "norad_id": 67069,
        "name": "XIWANG-5 02",
        "group": "last-30-days",
        "lat": 8.762024654262317,
        "lon": -162.46957041930787,
        "alt_km": 506.8132119443644,
        "timestamp": "2025-12-25T16:53:13.375551+00:00",
        "meta_object_name": "XIWANG-5 02",
        "meta_object_id": "2025-296A",
        "meta_epoch": "2025-12-23T12:00:44.103744",
        "meta_mean_motion": 15.16891516,
        "meta_eccentricity": 0.00145566,
        "meta_inclination": 41.3523,
        "meta_ra_of_asc_node": 40.1941,
        "meta_arg_of_pericenter": 102.8792,
        "meta_mean_anomaly": 257.3656,
        "meta_ephemeris_type": 0,
        "meta_classification_type": "U",
        "meta_norad_cat_id": 67069,
        "meta_element_set_no": 999,
        "meta_rev_at_epoch": 159,
        "meta_bstar": 0.00060249038,
        "meta_mean_motion_dot": 0.00011945,
        "meta_mean_motion_ddot": 0,
        "tle_line1": "1 67069U 25296A   25357.50051046  .00011945  00000+0  60249-3 0  9998",
        "tle_line2": "2 67069  41.3523  40.1941 0014556 102.8792 257.3656 15.16891516  1599"
      },
      "geometry": {
        "type": "Point",
        "coordinates": [
          -162.46957041930787,
          8.762024654262317
        ]
      }
    },
    {
      "type": "Feature",
      "properties": {
        "norad_id": 67070,
        "name": "DEAR-5",
        "group": "last-30-days",
        "lat": 5.583485420092591,
        "lon": -158.7654958626929,
        "alt_km": 507.011086352064,
        "timestamp": "2025-12-25T16:53:13.375565+00:00",
        "meta_object_name": "DEAR-5",
        "meta_object_id": "2025-296B",
        "meta_epoch": "2025-12-23T23:03:08.623008",
        "meta_mean_motion": 15.16917161,
        "meta_eccentricity": 0.0016166,
        "meta_inclination": 41.3551,
        "meta_ra_of_asc_node": 37.5614,
        "meta_arg_of_pericenter": 107.8349,
        "meta_mean_anomaly": 252.4237,
        "meta_ephemeris_type": 0,
        "meta_classification_type": "U",
        "meta_norad_cat_id": 67070,
        "meta_element_set_no": 999,
        "meta_rev_at_epoch": 165,
        "meta_bstar": 0.0002755,
        "meta_mean_motion_dot": 5.352e-05,
        "meta_mean_motion_ddot": 0,
        "tle_line1": "1 67070U 25296B   25357.96051647  .00005352  00000+0  27550-3 0  9990",
        "tle_line2": "2 67070  41.3551  37.5614 0016166 107.8349 252.4237 15.16917161  1654"
      },
      "geometry": {
        "type": "Point",
        "coordinates": [
          -158.7654958626929,
          5.583485420092591
        ]
      }
    },
    {
      "type": "Feature",
      "properties": {
        "norad_id": 67071,
        "name": "KZ-11 R/B",
        "group": "last-30-days",
        "lat": -30.694783093909834,
        "lon": -14.229615885365282,
        "alt_km": 280.6996066208494,
        "timestamp": "2025-12-25T16:53:13.375575+00:00",
        "meta_object_name": "KZ-11 R/B",
        "meta_object_id": "2025-296C",
        "meta_epoch": "2025-12-24T07:54:11.602080",
        "meta_mean_motion": 15.73894626,
        "meta_eccentricity": 0.03315074,
        "meta_inclination": 41.3001,
        "meta_ra_of_asc_node": 37.0775,
        "meta_arg_of_pericenter": 35.4688,
        "meta_mean_anomaly": 326.7718,
        "meta_ephemeris_type": 0,
        "meta_classification_type": "U",
        "meta_norad_cat_id": 67071,
        "meta_element_set_no": 999,
        "meta_rev_at_epoch": 169,
        "meta_bstar": 0.00038975112,
        "meta_mean_motion_dot": 0.10609436,
        "meta_mean_motion_ddot": 7.766669e-06,
        "tle_line1": "1 67071U 25296C   25358.32930095  .10609436  77667-5  38975-3 0  9991",
        "tle_line2": "2 67071  41.3001  37.0775 0331507  35.4688 326.7718 15.73894626  1695"
      },
      "geometry": {
        "type": "Point",
        "coordinates": [
          -14.229615885365282,
          -30.694783093909834
        ]
      }
    },
    {
      "type": "Feature",
      "properties": {
        "norad_id": 67073,
        "name": "RAISE-4",
        "group": "last-30-days",
        "lat": -43.343352846267514,
        "lon": 154.03131544953172,
        "alt_km": 545.5842359367944,
        "timestamp": "2025-12-25T16:53:13.375586+00:00",
        "meta_object_name": "RAISE-4",
        "meta_object_id": "2025-297B",
        "meta_epoch": "2025-12-25T04:20:03.382080",
        "meta_mean_motion": 15.07229079,
        "meta_eccentricity": 0.00115943,
        "meta_inclination": 97.4854,
        "meta_ra_of_asc_node": 146.3942,
        "meta_arg_of_pericenter": 274.0977,
        "meta_mean_anomaly": 85.8926,
        "meta_ephemeris_type": 0,
        "meta_classification_type": "U",
        "meta_norad_cat_id": 67073,
        "meta_element_set_no": 999,
        "meta_rev_at_epoch": 166,
        "meta_bstar": 0.00035202727,
        "meta_mean_motion_dot": 5.251e-05,
        "meta_mean_motion_ddot": 0,
        "tle_line1": "1 67073U 25297B   25359.18059470  .00005251  00000+0  35203-3 0  9994",
        "tle_line2": "2 67073  97.4854 146.3942 0011594 274.0977  85.8926 15.07229079  1660"
      },
      "geometry": {
        "type": "Point",
        "coordinates": [
          154.03131544953172,
          -43.343352846267514
        ]
      }
    },
    {
      "type": "Feature",
      "properties": {
        "norad_id": 67074,
        "name": "ELECTRON KICK STAGE R/B",
        "group": "last-30-days",
        "lat": -23.62946514793706,
        "lon": -35.501290182913905,
        "alt_km": 271.3796303349545,
        "timestamp": "2025-12-25T16:53:13.375596+00:00",
        "meta_object_name": "ELECTRON KICK STAGE R/B",
        "meta_object_id": "2025-297C",
        "meta_epoch": "2025-12-24T23:04:16.759776",
        "meta_mean_motion": 15.59630537,
        "meta_eccentricity": 0.01905487,
        "meta_inclination": 97.4822,
        "meta_ra_of_asc_node": 147.0126,
        "meta_arg_of_pericenter": 225.1544,
        "meta_mean_anomaly": 133.4098,
        "meta_ephemeris_type": 0,
        "meta_classification_type": "U",
        "meta_norad_cat_id": 67074,
        "meta_element_set_no": 999,
        "meta_rev_at_epoch": 168,
        "meta_bstar": 0.0017941165,
        "meta_mean_motion_dot": 0.00352388,
        "meta_mean_motion_ddot": 3.5753427e-05,
        "tle_line1": "1 67074U 25297C   25358.96130509  .00352388  35753-4  17941-2 0  9995",
        "tle_line2": "2 67074  97.4822 147.0126 0190548 225.1544 133.4098 15.59630537  1686"
      },
      "geometry": {
        "type": "Point",
        "coordinates": [
          -35.501290182913905,
          -23.62946514793706
        ]
      }
    }
  ]
}